{
  "type": "FeatureCollection",
  "features": [
    {
      "type": "Feature",
      "properties": {
        "norad_id": 35130,
        "name": "FENGYUN 1C DEB",
        "group": "fengyun-1c-debris",
        "lat": -35.6032238630124,
        "lon": -166.6121160129092,
        "alt_km": 579.2442289366081,
        "timestamp": "2025-12-08T21:31:04.955109+00:00",
        "meta_object_name": "FENGYUN 1C DEB",
        "meta_object_id": "1999-025DLJ",
        "meta_epoch": "2025-12-03T19:51:08.700192",
        "meta_mean_motion": 14.97420249,
        "meta_eccentricity": 0.0006062,
        "meta_inclination": 99.0324,
        "meta_ra_of_asc_node": 180.9884,
        "meta_arg_of_pericenter": 103.2228,
        "meta_mean_anomaly": 256.9666,
        "meta_ephemeris_type": 0,
        "meta_classification_type": "U",
        "meta_norad_cat_id": 35130,
        "meta_element_set_no": 999,
        "meta_rev_at_epoch": 64780,
        "meta_bstar": 0.011515,
        "meta_mean_motion_dot": 0.00136513,
        "meta_mean_motion_ddot": 0,
        "tle_line1": "1 35130U 99025DLJ 25337.82718403  .00136513  00000+0  11515-1 0  9992",
        "tle_line2": "2 35130  99.0324 180.9884 0006062 103.2228 256.9666 14.97420249647808"
      },
      "geometry": {
        "type": "Point",
        "coordinates": [
          -166.6121160129092,
          -35.6032238630124
        ]
      }
    },
    {
      "type": "Feature",
      "properties": {
        "norad_id": 35135,
        "name": "FENGYUN 1C DEB",
        "group": "fengyun-1c-debris",
        "lat": 80.19388183723474,
        "lon": -68.87751019642427,
        "alt_km": 859.5095930255466,
        "timestamp": "2025-12-08T21:31:04.955119+00:00",
        "meta_object_name": "FENGYUN 1C DEB",
        "meta_object_id": "1999-025DLP",
        "meta_epoch": "2025-12-06T06:39:27.921600",
        "meta_mean_motion": 14.22516018,
        "meta_eccentricity": 0.00810833,
        "meta_inclination": 98.5651,
        "meta_ra_of_asc_node": 349.2636,
        "meta_arg_of_pericenter": 303.4126,
        "meta_mean_anomaly": 55.9315,
        "meta_ephemeris_type": 0,
        "meta_classification_type": "U",
        "meta_norad_cat_id": 35135,
        "meta_element_set_no": 999,
        "meta_rev_at_epoch": 87732,
        "meta_bstar": 0.0008831478,
        "meta_mean_motion_dot": 1.995e-05,
        "meta_mean_motion_ddot": 0,
        "tle_line1": "1 35135U 99025DLP 25340.27740650  .00001995  00000+0  88315-3 0  9998",
        "tle_line2": "2 35135  98.5651 349.2636 0081083 303.4126  55.9315 14.22516018877320"
      },
      "geometry": {
        "type": "Point",
        "coordinates": [
          -68.87751019642427,
          80.19388183723474
        ]
      }
    },
    {
      "type": "Feature",
      "properties": {
        "norad_id": 35139,
        "name": "FENGYUN 1C DEB",
        "group": "fengyun-1c-debris",
        "lat": -16.890290218239066,
        "lon": 165.59620375561846,
        "alt_km": 844.9201525795161,
        "timestamp": "2025-12-08T21:31:04.955129+00:00",
        "meta_object_name": "FENGYUN 1C DEB",
        "meta_object_id": "1999-025DLT",
        "meta_epoch": "2025-11-29T06:46:18.583392",
        "meta_mean_motion": 14.21054019,
        "meta_eccentricity": 0.00685814,
        "meta_inclination": 98.5841,
        "meta_ra_of_asc_node": 338.8823,
        "meta_arg_of_pericenter": 336.9878,
        "meta_mean_anomaly": 22.8231,
        "meta_ephemeris_type": 0,
        "meta_classification_type": "U",
        "meta_norad_cat_id": 35139,
        "meta_element_set_no": 999,
        "meta_rev_at_epoch": 63962,
        "meta_bstar": 0.00042081079,
        "meta_mean_motion_dot": 8.92e-06,
        "meta_mean_motion_ddot": 0,
        "tle_line1": "1 35139U 99025DLT 25333.28215953  .00000892  00000+0  42081-3 0  9993",
        "tle_line2": "2 35139  98.5841 338.8823 0068581 336.9878  22.8231 14.21054019639626"
      },
      "geometry": {
        "type": "Point",
        "coordinates": [
          165.59620375561846,
          -16.890290218239066
        ]
      }
    },
    {
      "type": "Feature",
      "properties": {
        "norad_id": 35140,
        "name": "FENGYUN 1C DEB",
        "group": "fengyun-1c-debris",
        "lat": -77.58773220787072,
        "lon": 6.892389177053531,
        "alt_km": 715.0159689582924,
        "timestamp": "2025-12-08T21:31:04.955139+00:00",
        "meta_object_name": "FENGYUN 1C DEB",
        "meta_object_id": "1999-025DLU",
        "meta_epoch": "2025-12-08T04:59:03.824160",
        "meta_mean_motion": 14.21334936,
        "meta_eccentricity": 0.02909563,
        "meta_inclination": 98.4457,
        "meta_ra_of_asc_node": 323.7721,
        "meta_arg_of_pericenter": 339.8774,
        "meta_mean_anomaly": 19.1121,
        "meta_ephemeris_type": 0,
        "meta_classification_type": "U",
        "meta_norad_cat_id": 35140,
        "meta_element_set_no": 999,
        "meta_rev_at_epoch": 87214,
        "meta_bstar": 0.00046692676,
        "meta_mean_motion_dot": 1.515e-05,
        "meta_mean_motion_ddot": 0,
        "tle_line1": "1 35140U 99025DLU 25342.20768315  .00001515  00000+0  46693-3 0  9998",
        "tle_line2": "2 35140  98.4457 323.7721 0290956 339.8774  19.1121 14.21334936872142"
      },
      "geometry": {
        "type": "Point",
        "coordinates": [
          6.892389177053531,
          -77.58773220787072
        ]
      }
    },
    {
      "type": "Feature",
      "properties": {
        "norad_id": 35142,
        "name": "FENGYUN 1C DEB",
        "group": "fengyun-1c-debris",
        "lat": -74.82195007220854,
        "lon": 11.109127070494063,
        "alt_km": 891.4125147146424,
        "timestamp": "2025-12-08T21:31:04.955150+00:00",
        "meta_object_name": "FENGYUN 1C DEB",
        "meta_object_id": "1999-025DLW",
        "meta_epoch": "2025-12-01T11:02:09.839904",
        "meta_mean_motion": 13.9049819,
        "meta_eccentricity": 0.0107348,
        "meta_inclination": 99.0446,
        "meta_ra_of_asc_node": 327.9188,
        "meta_arg_of_pericenter": 244.9528,
        "meta_mean_anomaly": 269.5822,
        "meta_ephemeris_type": 0,
        "meta_classification_type": "U",
        "meta_norad_cat_id": 35142,
        "meta_element_set_no": 999,
        "meta_rev_at_epoch": 85532,
        "meta_bstar": 0.00024065741,
        "meta_mean_motion_dot": 2.7e-06,
        "meta_mean_motion_ddot": 0,
        "tle_line1": "1 35142U 99025DLW 25335.45983611  .00000270  00000+0  24066-3 0  9994",
        "tle_line2": "2 35142  99.0446 327.9188 0107348 244.9528 269.5822 13.90498190855325"
      },
      "geometry": {
        "type": "Point",
        "coordinates": [
          11.109127070494063,
          -74.82195007220854
        ]
      }
    },
    {
      "type": "Feature",
      "properties": {
        "norad_id": 35144,
        "name": "FENGYUN 1C DEB",
        "group": "fengyun-1c-debris",
        "lat": -45.47300621076219,
        "lon": 107.0137830424236,
        "alt_km": 693.4790207336018,
        "timestamp": "2025-12-08T21:31:04.955160+00:00",
        "meta_object_name": "FENGYUN 1C DEB",
        "meta_object_id": "1999-025DLY",
        "meta_epoch": "2025-12-05T06:29:41.441856",
        "meta_mean_motion": 14.58921127,
        "meta_eccentricity": 0.00265161,
        "meta_inclination": 98.698,
        "meta_ra_of_asc_node": 94.2644,
        "meta_arg_of_pericenter": 25.2259,
        "meta_mean_anomaly": 335.0228,
        "meta_ephemeris_type": 0,
        "meta_classification_type": "U",
        "meta_norad_cat_id": 35144,
        "meta_element_set_no": 999,
        "meta_rev_at_epoch": 65104,
        "meta_bstar": 0.0048374356,
        "meta_mean_motion_dot": 0.00022805,
        "meta_mean_motion_ddot": 0,
        "tle_line1": "1 35144U 99025DLY 25339.27061854  .00022805  00000+0  48374-2 0  9991",
        "tle_line2": "2 35144  98.6980  94.2644 0026516  25.2259 335.0228 14.58921127651042"
      },
      "geometry": {
        "type": "Point",
        "coordinates": [
          107.0137830424236,
          -45.47300621076219
        ]
      }
    },
    {
      "type": "Feature",
      "properties": {
        "norad_id": 35147,
        "name": "FENGYUN 1C DEB",
        "group": "fengyun-1c-debris",
        "lat": -62.412198558605574,
        "lon": 74.20391141621315,
        "alt_km": 653.6936328199272,
        "timestamp": "2025-12-08T21:31:04.955170+00:00",
        "meta_object_name": "FENGYUN 1C DEB",
        "meta_object_id": "1999-025DMB",
        "meta_epoch": "2025-12-08T03:53:17.840256",
        "meta_mean_motion": 14.74032065,
        "meta_eccentricity": 0.00276083,
        "meta_inclination": 99.4865,
        "meta_ra_of_asc_node": 54.6818,
        "meta_arg_of_pericenter": 212.762,
        "meta_mean_anomaly": 147.1872,
        "meta_ephemeris_type": 0,
        "meta_classification_type": "U",
        "meta_norad_cat_id": 35147,
        "meta_element_set_no": 999,
        "meta_rev_at_epoch": 74237,
        "meta_bstar": 0.0037161375,
        "meta_mean_motion_dot": 0.00024612,
        "meta_mean_motion_ddot": 0,
        "tle_line1": "1 35147U 99025DMB 25342.16201204  .00024612  00000+0  37161-2 0  9991",
        "tle_line2": "2 35147  99.4865  54.6818 0027608 212.7620 147.1872 14.74032065742373"
      },
      "geometry": {
        "type": "Point",
        "coordinates": [
          74.20391141621315,
          -62.412198558605574
        ]
      }
    }
  ]
}